AO-07
1 07530U 74089B   26175.31411375 -.00000038  00000+0  50599-4 0  9992
2 07530 101.9899 188.6350 0012633 116.8871 256.4434 12.53698145361419
PHASE 3B (AO-10)
1 14129U 83058B   26174.68191131 -.00000085  00000+0  00000+0 0  9993
2 14129  25.9176 218.4895 6008564 117.4551 314.9460  2.05872578295624
UO-11
1 14781U 84021B   26174.86625253  .00001092  00000+0  11662-3 0  9993
2 14781  97.8059 140.3663 0008218 151.7331 208.4334 14.90797521258121
LO-19
1 20442U 90005G   26175.01929488  .00000083  00000+0  46428-4 0  9996
2 20442  98.8847 197.0132 0011515 180.6950 179.4219 14.34124888903371
AO-27
1 22825U 93061C   26175.13210451  .00000067  00000+0  42631-4 0  9998
2 22825  98.6877 242.5432 0009527  81.9186 278.3077 14.30943872707991
FO-29
1 24278U 96046B   26175.18698092 -.00000018  00000+0  14758-4 0  9990
2 24278  98.5235  23.0999 0350920  78.3218 285.7074 13.53274665474119
GO-32
1 25397U 98043D   26174.94820125  .00000038  00000+0  36579-4 0  9995
2 25397  99.0070 167.8775 0001389 150.1095 210.0162 14.24429485452293
ISS
1 25544U 98067A   26175.15560926  .00007363  00000+0  13975-3 0  9991
2 25544  51.6326 265.6000 0004427 224.4953 135.5681 15.49396189572839
NO-44
1 26931U 01043C   26175.21369351  .00000060  00000+0  53323-4 0  9995
2 26931  67.0495 226.0984 0006053 264.9653  95.0758 14.31958084291452
SO-50
1 27607U 02058C   26175.03336570  .00000757  00000+0  10682-3 0  9993
2 27607  64.5518 107.8036 0075096 261.1879  98.0718 14.83059331265473
CO-55
1 27844U 03031E   26175.27271409  .00000238  00000+0  12196-3 0  9999
2 27844  98.6736 183.7425 0009958 157.9715 202.1894 14.24339464192684
RS-22
1 27939U 03042A   26175.29560539  .00000339  00000+0  60456-4 0  9998
2 27939  98.3477 359.8550 0009987 244.1261 288.9539 14.73475746216593
CO-65
1 32785U 08021C   26175.20916588  .00004434  00000+0  28054-3 0  9992
2 32785  97.8279 156.7737 0009137  17.8170 342.3376 15.09511070986256
CO-66
1 32791U 08021J   26175.25105171  .00016147  00000+0  50931-3 0  9995
2 32791  97.7521 173.4867 0000305 266.0101  94.1105 15.32959787988376
RS-30
1 32953U 08025A   26175.26100919  .00000088  00000+0  56238-3 0  9998
2 32953  82.5048 351.0390 0018628 297.6731  62.2459 12.43179909820577
XIWANG-1
1 36122U 09072B   26175.23580147  .00000174  00000+0  57304-3 0  9996
2 36122 100.4025 128.9553 0006977 214.1465 145.9200 13.16439735793937
SRMSAT
1 37841U 11058D   26175.23753896  .00000359  00000+0  51087-4 0  9993
2 37841  19.9735  16.7943 0011707 281.6878 234.4486 14.11576866758810
ZACUBE-1
1 39417U 13066B   26175.13942580  .00002435  00000+0  19122-3 0  9994
2 39417  97.8056 137.5120 0041739 223.8943 135.8962 15.01220001681770
TRITON-1
1 39427U 13066M   26175.31886493  .00001605  00000+0  19706-3 0  9991
2 39427  97.8237  84.9629 0088883 210.2780 149.3282 14.81725605675147
GOMX-1
1 39430U 13066Q   26175.26760003  .00001230  00000+0  18985-3 0  9999
2 39430  97.6486  15.2832 0129949  55.0762 306.2573 14.69479948670955
LO-74
1 39440U 13066AA  26175.16357250  .00003255  00000+0  30265-3 0  9999
2 39440  97.8904 124.1710 0057788   6.1369 354.0545 14.93813506678035
AO-73
1 39444U 13066AE  26174.48649236  .00004811  00000+0  29949-3 0  9991
2 39444  97.8270 146.0634 0036320 179.4025 180.7253 15.09547873680611
DTUSAT-2
1 40030U 14033W   26175.23873715  .00005507  00000+0  29799-3 0  9990
2 40030  98.0867 173.4137 0007304 198.1946 161.9024 15.15092535653750
METEOR-M-2
1 40069U 14037A   26175.25499128  .00000430  00000+0  21600-3 0  9993
2 40069  98.5117 150.7431 0006441  26.7181 333.4328 14.21464504620323
LILACSAT-2
1 40908U 15049K   26175.30212674  .00015960  00000+0  26996-3 0  9991
2 40908  97.4643 212.4145 0006111 212.6899 147.3975 15.51649967596853
Horyu-4
1 41340U 16012D   26174.98997884  .00706661  22541-3  11007-2 0  9998
2 41340  30.9834  28.8335 0007996 314.6456  45.3555 16.02876196571905
Lapan A3
1 41603U 16040E   26175.30544207  .00003001  00000+0  95945-4 0  9990
2 41603  97.1491 171.2171 0010011   1.3170 358.8097 15.33143825555901
TechnoSat
1 42829U 17042E   26175.16401237  .00002626  00000+0  18853-3 0  9997
2 42829  97.4296 332.5568 0019346  72.5858 287.7482 15.04998853487755
NOAA 20
1 43011U 17072B   26175.31210538  .00000269  00000+0  12518-3 0  9996
2 43011  98.9551 194.0098 0010819 128.9172 231.2974 14.28801889448371
AO-91
1 43017U 17073E   26175.15325566  .00006039  00000+0  26536-3 0  9999
2 43017  97.4700  42.2254 0148774 304.9888  53.7450 15.12802211466445
S-Net D
1 43186U 18014G   26174.99334955  .00004138  00000+0  21439-3 0  9990
2 43186  97.5358  79.7411 0008218   8.7119 351.4256 15.16727237459796
S-Net B
1 43187U 18014H   26175.20285968  .00004541  00000+0  23506-3 0  9990
2 43187  97.5364  79.9363 0008628   2.2761 357.8510 15.16699503459820
S-Net A
1 43188U 18014J   26175.19010870  .00004081  00000+0  21139-3 0  9996
2 43188  97.5375  80.1335 0008546   3.4432 356.6858 15.16737154459820
S-Net C
1 43189U 18014K   26175.20677126  .00004585  00000+0  23732-3 0  9992
2 43189  97.5391  80.2262 0009635 354.0800   6.0317 15.16691363458379
Ten-Koh
1 43677U 18084G   26175.24741688  .00001274  00000+0  99633-4 0  9996
2 43677  98.0762   7.9090 0011403  93.8942 266.3585 15.02962897417220
PO-101
1 43678U 18084H   26175.30540476  .00001720  00000+0  14163-3 0  9996
2 43678  98.1204  11.8236 0012945 147.7139 212.4879 15.00478828417286
QO-100
1 43700U 18090A   26175.17555332  .00000152  00000+0  00000+0 0  9990
2 43700   0.0162 323.1081 0002080 165.5076 232.7069  1.00273279 27743
MinXSS-2
1 43758U 18099A   26175.20651980  .00033748  00000+0  66053-3 0  9993
2 43758  97.4534 251.6982 0007235 228.2475 131.8157 15.47316970415213
AO-95
1 43770U 18099N   26175.15597508  .00009674  00000+0  36928-3 0  9995
2 43770  97.4382 235.3767 0007299 330.8169  29.2661 15.26836482414286
SNUSat 2
1 43782U 18099AA  26175.10558180  .00006958  00000+0  30815-3 0  9997
2 43782  97.4059 228.3830 0008557 269.4568  90.5688 15.21924318414080
SnugLite
1 43784U 18099AC  26175.08876981  .00010485  00000+0  39458-3 0  9990
2 43784  97.3868 229.3010 0001457 236.9546 123.1553 15.27306223414378
ITASat 1
1 43786U 18099AE  26174.87224046  .00005463  00000+0  26291-3 0  9998
2 43786  97.4030 226.2505 0011386 335.8240  24.2459 15.19126206413927
EAGLET 1
1 43790U 18099AJ  26175.12953031  .00003286  00000+0  18965-3 0  9995
2 43790  97.4230 224.6143 0010000 328.8929  31.1709 15.12983619413389
ESEO
1 43792U 18099AL  26175.09838027  .00001205  00000+0  90708-4 0  9995
2 43792  97.3976 212.1910 0010493 316.2627  43.7767 15.04268456412842
JO-97
1 43803U 18099AX  26175.14190018  .00015119  00000+0  46379-3 0  9998
2 43803  97.4133 238.0008 0004834 230.5921 129.4894 15.33842498414697
Suomi 100
1 43804U 18099AY  26175.14570907  .00010718  00000+0  38798-3 0  9994
2 43804  97.4189 235.5135 0008566 249.8041 110.2278 15.28552873414484
ISAT
1 43879U 18111D   26174.55295329  .00082802  00000+0  79540-3 0  9990
2 43879  97.5872 110.2675 0002605 165.3365 194.7971 15.66333302412169
UWE-4
1 43880U 18111E   26175.07461358  .00030603  00000+0  61683-3 0  9998
2 43880  97.5841 103.7842 0004486 307.8238  52.2604 15.46500339411840
Sparrow
1 43881U 18111F   26174.35634660  .00149766  00000+0  94570-3 0  9999
2 43881  97.6095 115.7899 0004618 124.5126 235.6575 15.76173004412343
Prox-1
1 44339U 19036A   26174.88504997  .00012661  00000+0  12282-2 0  9994
2 44339  23.9951  69.5029 0005849 112.8625 247.2493 14.90752676374479
Taurus 1
1 44530U 19059C   26175.31156941  .00004299  00000+0  69086-3 0  9996
2 44530  98.6424 340.5816 0007237 290.3157  69.7271 14.72153562359694
TO-108
1 44881U 19093C   26175.24717679  .00000713  00000+0  86392-4 0  9993
2 44881  97.7530 247.3073 0015062  66.0659 294.2133 14.86529999352466
RS-44
1 44909U 19096E   26175.19786970  .00000035  00000+0  87621-4 0  9994
2 44909  82.5224 335.0455 0218408 127.8374 234.2715 12.79748960303240
SALSAT
1 46495U 20068K   26175.27497564  .00006623  00000+0  23163-3 0  9993
2 46495  97.8854 178.7714 0007801 277.9982  82.0372 15.29885766316443
CSS (TIANHE-1)
1 48274U 21035A   26175.27077788  .00020499  00000+0  23936-3 0  9992
2 48274  41.4689 278.8848 0007696 138.8892 221.2528 15.61092232294278
CUTE
1 49263U 21088D   26175.21813702  .00266732  29870-4  67918-3 0  9998
2 49263  97.4172 275.2045 0007667 220.2965 139.7743 15.95360523263670
TeikyoSat 4
1 49396U 21102B   26175.08092716  .00001556  00000+0  10074-3 0  9992
2 49396  97.3666 204.2963 0010338 269.1593  90.8452 15.09529088253764
Z-Sat
1 49399U 21102E   26175.24992905  .00003528  00000+0  17473-3 0  9993
2 49399  97.3326 210.3586 0015447 217.8039 142.2111 15.18306181254515
KOSEN 1
1 49402U 21102H   26175.08841658  .00006486  00000+0  24747-3 0  9996
2 49402  97.3188 217.1116 0013946 175.9347 184.2008 15.26916621255076
HO-113
1 50466U 21131B   26175.27419363  .00000328  00000+0  11504-3 0  9991
2 50466  98.4979 267.6255 0005374  80.3481 279.8315 14.41362651236138
SNUGLITE 2
1 52899U 22065F   26175.13738191  .00000775  00000+0  15583-3 0  9995
2 52899  98.2210 319.9558 0007521  12.4416 347.6971 14.64358357212019
METEOR-M2-3
1 57166U 23091A   26175.26522465 -.00000017  00000+0  11251-4 0  9995
2 57166  98.6080 230.0988 0004703 138.0519 222.1021 14.24047293155523
UmKA 1 (RS40S)
1 57172U 23091G   26175.26553454  .00005303  00000+0  24248-3 0  9995
2 57172  97.5050 233.9355 0014343  95.8193 264.4678 15.20887439165084
CubeBel-2 (EU11S)
1 57175U 23091K   26175.25077841  .00012632  00000+0  44600-3 0  9995
2 57175  97.5052 238.5309 0011209  93.3026 266.9497 15.29305587165382
RS58S MONITOR-3
1 57180U 23091Q   26175.27135975  .00009778  00000+0  36018-3 0  9997
2 57180  97.5084 238.7696 0012909  78.9020 281.3670 15.27964376165373
RS57S MONITOR-4
1 57182U 23091S   26175.25002224  .00010071  00000+0  36991-3 0  9995
2 57182  97.5078 238.7196 0012896  79.2850 280.9840 15.28050072165377
RS-38S
1 57189U 23091Z   26175.24800432  .00015134  00000+0  43036-3 0  9991
2 57189  97.5092 244.8751 0007800  56.2323 303.9663 15.36219101165776
